start=new Date('2023-06-12T00:00:00.000Z').valueOf();
sats=[{"ARG_OF_PERICENTER":"55.3279","BSTAR":"0.00193290000000","PERIOD":"95.590","MEAN_MOTION":"15.06434371","RCS_SIZE":"LARGE","GP_ID":"233724854","TLE_LINE2":"2 48680  53.0542 289.4857 0001039  55.3279 304.7808 15.06434371112833","OBJECT_NAME":"STARLINK-2649","EPOCH":"2023-06-11T18:05:25.873152","EPHEMERIS_TYPE":"0","OBJECT_TYPE":"PAYLOAD","MEAN_ELEMENT_THEORY":"SGP4","FILE":"3930737","REF_FRAME":"TEME","RA_OF_ASC_NODE":"289.4857","MEAN_ANOMALY":"304.7808","PERIAPSIS":"546.389","MEAN_MOTION_DOT":"0.00028653","ECCENTRICITY":"0.00010390","OBJECT_ID":"2021-044AU","CENTER_NAME":"EARTH","MEAN_MOTION_DDOT":"0.0000000000000","LAUNCH_DATE":"2021-05-26","NORAD_CAT_ID":"48680","CLASSIFICATION_TYPE":"U","SEMIMAJOR_AXIS":"6925.243","INCLINATION":"53.0542","DECAY_DATE":null,"APOAPSIS":"547.828","TLE_LINE1":"1 48680U 21044AU  23162.75377168  .00028653  00000-0  19329-2 0  9995","ELEMENT_SET_NO":"999","COUNTRY_CODE":"US","SITE":"AFETR","REV_AT_EPOCH":"11283","TIME_SYSTEM":"UTC"},{"ARG_OF_PERICENTER":"54.1590","BSTAR":"0.00171870000000","PERIOD":"95.590","MEAN_MOTION":"15.06426058","RCS_SIZE":"LARGE","GP_ID":"233724604","TLE_LINE2":"2 48681  53.0538 260.3239 0000971  54.1590 305.9489 15.06426058113223","OBJECT_NAME":"STARLINK-2725","EPOCH":"2023-06-11T14:53:04.631136","EPHEMERIS_TYPE":"0","OBJECT_TYPE":"PAYLOAD","FILE":"3930737","MEAN_ELEMENT_THEORY":"SGP4","REF_FRAME":"TEME","RA_OF_ASC_NODE":"260.3239","MEAN_ANOMALY":"305.9489","PERIAPSIS":"546.461","MEAN_MOTION_DOT":"0.00025429","ECCENTRICITY":"0.00009710","OBJECT_ID":"2021-044AV","CENTER_NAME":"EARTH","MEAN_MOTION_DDOT":"0.0000000000000","LAUNCH_DATE":"2021-05-26","NORAD_CAT_ID":"48681","SEMIMAJOR_AXIS":"6925.269","CLASSIFICATION_TYPE":"U","INCLINATION":"53.0538","DECAY_DATE":null,"APOAPSIS":"547.806","ELEMENT_SET_NO":"999","TLE_LINE1":"1 48681U 21044AV  23162.62019249  .00025429  00000-0  17187-2 0  9993","COUNTRY_CODE":"US","SITE":"AFETR","REV_AT_EPOCH":"11322","TIME_SYSTEM":"UTC"},{"REF_FRAME":"TEME","OBJECT_TYPE":"PAYLOAD","MEAN_ELEMENT_THEORY":"SGP4","FILE":"3930737","EPHEMERIS_TYPE":"0","EPOCH":"2023-06-11T14:49:03.719424","TLE_LINE2":"2 48682  53.0527 250.2593 0000792 108.7542 251.3533 15.06420427113360","OBJECT_NAME":"STARLINK-2743","GP_ID":"233725352","RCS_SIZE":"LARGE","MEAN_MOTION":"15.06420427","PERIOD":"95.591","ARG_OF_PERICENTER":"108.7542","BSTAR":"0.00152530000000","TIME_SYSTEM":"UTC","SITE":"AFETR","REV_AT_EPOCH":"11336","TLE_LINE1":"1 48682U 21044AW  23162.61740416  .00022523  00000-0  15253-2 0  9994","ELEMENT_SET_NO":"999","COUNTRY_CODE":"US","APOAPSIS":"547.699","DECAY_DATE":null,"CLASSIFICATION_TYPE":"U","SEMIMAJOR_AXIS":"6925.286","INCLINATION":"53.0527","NORAD_CAT_ID":"48682","LAUNCH_DATE":"2021-05-26","MEAN_MOTION_DDOT":"0.0000000000000","OBJECT_ID":"2021-044AW","CENTER_NAME":"EARTH","ECCENTRICITY":"0.00007920","MEAN_MOTION_DOT":"0.00022523","PERIAPSIS":"546.602","RA_OF_ASC_NODE":"250.2593","MEAN_ANOMALY":"251.3533"},{"TIME_SYSTEM":"UTC","REV_AT_EPOCH":"11335","SITE":"AFETR","APOAPSIS":"547.888","COUNTRY_CODE":"US","TLE_LINE1":"1 48683U 21044AX  23162.50682141  .00024525  00000-0  16591-2 0  9993","ELEMENT_SET_NO":"999","INCLINATION":"53.0529","CLASSIFICATION_TYPE":"U","SEMIMAJOR_AXIS":"6925.311","DECAY_DATE":null,"LAUNCH_DATE":"2021-05-26","NORAD_CAT_ID":"48683","CENTER_NAME":"EARTH","OBJECT_ID":"2021-044AX","MEAN_MOTION_DDOT":"0.0000000000000","MEAN_MOTION_DOT":"0.00024525","ECCENTRICITY":"0.00010280","MEAN_ANOMALY":"304.4870","RA_OF_ASC_NODE":"250.6022","PERIAPSIS":"546.464","MEAN_ELEMENT_THEORY":"SGP4","FILE":"3930529","OBJECT_TYPE":"PAYLOAD","REF_FRAME":"TEME","EPOCH":"2023-06-11T12:09:49.369824","EPHEMERIS_TYPE":"0","GP_ID":"233693698","TLE_LINE2":"2 48683  53.0529 250.6022 0001028  55.6216 304.4870 15.06412323113354","OBJECT_NAME":"STARLINK-2756","RCS_SIZE":"LARGE","MEAN_MOTION":"15.06412323","PERIOD":"95.591","BSTAR":"0.00165910000000","ARG_OF_PERICENTER":"55.6216"},{"GP_ID":"233724354","TLE_LINE2":"2 48684  53.0532 264.6548 0000907 122.8787 237.2289 15.06435269113184","OBJECT_NAME":"STARLINK-2741","RCS_SIZE":"LARGE","MEAN_ELEMENT_THEORY":"SGP4","FILE":"3930737","OBJECT_TYPE":"PAYLOAD","REF_FRAME":"TEME","EPOCH":"2023-06-11T19:04:32.141280","EPHEMERIS_TYPE":"0","BSTAR":"0.00149070000000","ARG_OF_PERICENTER":"122.8787","MEAN_MOTION":"15.06435269","PERIOD":"95.590","APOAPSIS":"547.734","COUNTRY_CODE":"US","TLE_LINE1":"1 48684U 21044AY  23162.79481645  .00022013  00000-0  14907-2 0  9990","ELEMENT_SET_NO":"999","INCLINATION":"53.0532","CLASSIFICATION_TYPE":"U","SEMIMAJOR_AXIS":"6925.240","DECAY_DATE":null,"TIME_SYSTEM":"UTC","REV_AT_EPOCH":"11318","SITE":"AFETR","MEAN_MOTION_DOT":"0.00022013","ECCENTRICITY":"0.00009070","MEAN_ANOMALY":"237.2289","RA_OF_ASC_NODE":"264.6548","PERIAPSIS":"546.477","LAUNCH_DATE":"2021-05-26","NORAD_CAT_ID":"48684","CENTER_NAME":"EARTH","OBJECT_ID":"2021-044AY","MEAN_MOTION_DDOT":"0.0000000000000"},{"REV_AT_EPOCH":"11337","SITE":"AFETR","TIME_SYSTEM":"UTC","DECAY_DATE":null,"INCLINATION":"53.0541","SEMIMAJOR_AXIS":"6925.295","CLASSIFICATION_TYPE":"U","COUNTRY_CODE":"US","ELEMENT_SET_NO":"999","TLE_LINE1":"1 48685U 21044AZ  23162.61002985  .00017502  00000-0  11904-2 0  9999","APOAPSIS":"547.740","MEAN_MOTION_DDOT":"0.0000000000000","CENTER_NAME":"EARTH","OBJECT_ID":"2021-044AZ","NORAD_CAT_ID":"48685","LAUNCH_DATE":"2021-05-26","PERIAPSIS":"546.581","MEAN_ANOMALY":"296.4712","RA_OF_ASC_NODE":"250.1775","ECCENTRICITY":"0.00008370","MEAN_MOTION_DOT":"0.00017502","EPHEMERIS_TYPE":"0","EPOCH":"2023-06-11T14:38:26.579040","REF_FRAME":"TEME","MEAN_ELEMENT_THEORY":"SGP4","FILE":"3930737","OBJECT_TYPE":"PAYLOAD","RCS_SIZE":"LARGE","TLE_LINE2":"2 48685  53.0541 250.1775 0000837  63.6362 296.4712 15.06417367113378","OBJECT_NAME":"STARLINK-2751","GP_ID":"233725105","PERIOD":"95.591","MEAN_MOTION":"15.06417367","BSTAR":"0.00119040000000","ARG_OF_PERICENTER":"63.6362"},{"BSTAR":"0.00129160000000","ARG_OF_PERICENTER":"65.3328","PERIOD":"95.591","MEAN_MOTION":"15.06423496","RCS_SIZE":"LARGE","GP_ID":"233725853","TLE_LINE2":"2 48686  53.0531 255.1341 0001039  65.3328 294.7769 15.06423496113304","OBJECT_NAME":"STARLINK-2629","EPOCH":"2023-06-11T16:05:23.943264","EPHEMERIS_TYPE":"0","MEAN_ELEMENT_THEORY":"SGP4","FILE":"3930737","OBJECT_TYPE":"PAYLOAD","REF_FRAME":"TEME","MEAN_ANOMALY":"294.7769","RA_OF_ASC_NODE":"255.1341","PERIAPSIS":"546.422","MEAN_MOTION_DOT":"0.00019021","ECCENTRICITY":"0.00010390","CENTER_NAME":"EARTH","OBJECT_ID":"2021-044BA","MEAN_MOTION_DDOT":"0.0000000000000","LAUNCH_DATE":"2021-05-26","NORAD_CAT_ID":"48686","INCLINATION":"53.0531","CLASSIFICATION_TYPE":"U","SEMIMAJOR_AXIS":"6925.277","DECAY_DATE":null,"APOAPSIS":"547.861","COUNTRY_CODE":"US","ELEMENT_SET_NO":"999","TLE_LINE1":"1 48686U 21044BA  23162.67041601  .00019021  00000-0  12916-2 0  9996","REV_AT_EPOCH":"11330","SITE":"AFETR","TIME_SYSTEM":"UTC"},{"REV_AT_EPOCH":"11342","SITE":"AFETR","TIME_SYSTEM":"UTC","INCLINATION":"53.0532","SEMIMAJOR_AXIS":"6925.292","CLASSIFICATION_TYPE":"U","DECAY_DATE":null,"APOAPSIS":"547.892","COUNTRY_CODE":"US","TLE_LINE1":"1 48687U 21044BB  23162.51280925  .00023518  00000-0  15917-2 0  9994","ELEMENT_SET_NO":"999","CENTER_NAME":"EARTH","OBJECT_ID":"2021-044BB","MEAN_MOTION_DDOT":"0.0000000000000","LAUNCH_DATE":"2021-05-26","NORAD_CAT_ID":"48687","MEAN_ANOMALY":"306.4713","RA_OF_ASC_NODE":"245.5681","PERIAPSIS":"546.421","MEAN_MOTION_DOT":"0.00023518","ECCENTRICITY":"0.00010620","EPOCH":"2023-06-11T12:18:26.719200","EPHEMERIS_TYPE":"0","FILE":"3930529","MEAN_ELEMENT_THEORY":"SGP4","OBJECT_TYPE":"PAYLOAD","REF_FRAME":"TEME","RCS_SIZE":"LARGE","GP_ID":"233694198","TLE_LINE2":"2 48687  53.0532 245.5681 0001062  53.6374 306.4713 15.06418564113426","OBJECT_NAME":"STARLINK-2627","PERIOD":"95.591","MEAN_MOTION":"15.06418564","BSTAR":"0.00159170000000","ARG_OF_PERICENTER":"53.6374"},{"ECCENTRICITY":"0.00012120","MEAN_MOTION_DOT":"0.00008020","PERIAPSIS":"546.358","MEAN_ANOMALY":"312.1967","RA_OF_ASC_NODE":"243.7560","NORAD_CAT_ID":"48688","LAUNCH_DATE":"2021-05-26","MEAN_MOTION_DDOT":"0.0000000000000","CENTER_NAME":"EARTH","OBJECT_ID":"2021-044BC","COUNTRY_CODE":"US","ELEMENT_SET_NO":"999","TLE_LINE1":"1 48688U 21044BC  23162.91457739  .00008020  00000-0  55660-3 0  9999","APOAPSIS":"548.037","DECAY_DATE":null,"INCLINATION":"53.0538","CLASSIFICATION_TYPE":"U","SEMIMAJOR_AXIS":"6925.332","TIME_SYSTEM":"UTC","REV_AT_EPOCH":"11348","SITE":"AFETR","BSTAR":"0.00055660000000","ARG_OF_PERICENTER":"47.9124","MEAN_MOTION":"15.06405271","PERIOD":"95.592","OBJECT_NAME":"STARLINK-2742","TLE_LINE2":"2 48688  53.0538 243.7560 0001212  47.9124 312.1967 15.06405271113487","GP_ID":"233724855","RCS_SIZE":"LARGE","REF_FRAME":"TEME","MEAN_ELEMENT_THEORY":"SGP4","FILE":"3930737","OBJECT_TYPE":"PAYLOAD","EPHEMERIS_TYPE":"0","EPOCH":"2023-06-11T21:56:59.486496"},{"PERIOD":"95.591","MEAN_MOTION":"15.06420164","ARG_OF_PERICENTER":"59.3726","BSTAR":"0.00169200000000","EPOCH":"2023-06-11T12:31:02.711424","EPHEMERIS_TYPE":"0","OBJECT_TYPE":"PAYLOAD","MEAN_ELEMENT_THEORY":"SGP4","FILE":"3930529","REF_FRAME":"TEME","RCS_SIZE":"LARGE","GP_ID":"233693207","OBJECT_NAME":"STARLINK-2617","TLE_LINE2":"2 48689  53.0528 250.4948 0001131  59.3726 300.7375 15.06420164113357","OBJECT_ID":"2021-044BD","CENTER_NAME":"EARTH","MEAN_MOTION_DDOT":"0.0000000000000","LAUNCH_DATE":"2021-05-26","NORAD_CAT_ID":"48689","RA_OF_ASC_NODE":"250.4948","MEAN_ANOMALY":"300.7375","PERIAPSIS":"546.369","MEAN_MOTION_DOT":"0.00025024","ECCENTRICITY":"0.00011310","SITE":"AFETR","REV_AT_EPOCH":"11335","TIME_SYSTEM":"UTC","SEMIMAJOR_AXIS":"6925.287","CLASSIFICATION_TYPE":"U","INCLINATION":"53.0528","DECAY_DATE":null,"APOAPSIS":"547.935","ELEMENT_SET_NO":"999","TLE_LINE1":"1 48689U 21044BD  23162.52155916  .00025024  00000-0  16920-2 0  9997","COUNTRY_CODE":"US"}];
